{"type": "FeatureCollection", "features": [{"type": "Feature", "properties": {"route": "L", "stop_name": "Bayside Common Condominiums", "stop_id": 213, "color": "#e41a1c"}, "geometry": {"type": "Point", "coordinates": [-122.30815, 37.896314]}}, {"type": "Feature", "properties": {"route": "L", "stop_name": "Pierce St & Gateview Apts", "stop_id": 224, "color": "#e41a1c"}, "geometry": {"type": "Point", "coordinates": [-122.307189, 37.894086]}}, {"type": "Feature", "properties": {"route": "L", "stop_name": "Central Av & Yosemite Av", "stop_id": 849, "color": "#e41a1c"}, "geometry": {"type": "Point", "coordinates": [-122.305328, 37.901748]}}, {"type": "Feature", "properties": {"route": "L", "stop_name": "San Pablo Av & Cutting Blvd-Del Norte BART Stop D1", "stop_id": 920, "color": "#e41a1c"}, "geometry": {"type": "Point", "coordinates": [-122.318029, 37.925038]}}, {"type": "Feature", "properties": {"route": "L", "stop_name": "San Pablo Av & Lincoln Av", "stop_id": 927, "color": "#e41a1c"}, "geometry": {"type": "Point", "coordinates": [-122.304151, 37.904239]}}, {"type": "Feature", "properties": {"route": "L", "stop_name": "San Pablo Av & Manila Av (El Cerrito City Hall)", "stop_id": 928, "color": "#e41a1c"}, "geometry": {"type": "Point", "coordinates": [-122.311442, 37.915684]}}, {"type": "Feature", "properties": {"route": "L", "stop_name": "San Pablo Av & Moeser Ln", "stop_id": 929, "color": "#e41a1c"}, "geometry": {"type": "Point", "coordinates": [-122.308824, 37.911864]}}, {"type": "Feature", "properties": {"route": "L", "stop_name": "San Pablo Av & Potrero Av", "stop_id": 930, "color": "#e41a1c"}, "geometry": {"type": "Point", "coordinates": [-122.31533, 37.921202]}}, {"type": "Feature", "properties": {"route": "L", "stop_name": "Pierce St & Central Av", "stop_id": 4045, "color": "#e41a1c"}, "geometry": {"type": "Point", "coordinates": [-122.309608, 37.900813]}}, {"type": "Feature", "properties": {"route": "L", "stop_name": "Pierce St & Pacific East Mall", "stop_id": 4048, "color": "#e41a1c"}, "geometry": {"type": "Point", "coordinates": [-122.309032, 37.89835]}}, {"type": "Feature", "properties": {"route": "L", "stop_name": "Richmond Pkwy Transit Center (Park & Ride)", "stop_id": 4081, "color": "#e41a1c"}, "geometry": {"type": "Point", "coordinates": [-122.316644, 37.986126]}}, {"type": "Feature", "properties": {"route": "L", "stop_name": "San Pablo Av & Garvin Av", "stop_id": 4107, "color": "#e41a1c"}, "geometry": {"type": "Point", "coordinates": [-122.329083, 37.944037]}}, {"type": "Feature", "properties": {"route": "L", "stop_name": "San Pablo Av & Macdonald Av", "stop_id": 4111, "color": "#e41a1c"}, "geometry": {"type": "Point", "coordinates": [-122.323514, 37.932723]}}, {"type": "Feature", "properties": {"route": "L", "stop_name": "Church Ln & El Portal Dr", "stop_id": 4492, "color": "#e41a1c"}, "geometry": {"type": "Point", "coordinates": [-122.336262, 37.962557]}}, {"type": "Feature", "properties": {"route": "L", "stop_name": "Church Ln & San Pablo Av", "stop_id": 4495, "color": "#e41a1c"}, "geometry": {"type": "Point", "coordinates": [-122.33975, 37.959122]}}, {"type": "Feature", "properties": {"route": "L", "stop_name": "13685 San Pablo Av", "stop_id": 4550, "color": "#e41a1c"}, "geometry": {"type": "Point", "coordinates": [-122.338493, 37.95765]}}, {"type": "Feature", "properties": {"route": "L", "stop_name": "San Pablo Av & Kirk Ln", "stop_id": 4556, "color": "#e41a1c"}, "geometry": {"type": "Point", "coordinates": [-122.332499, 37.951178]}}, {"type": "Feature", "properties": {"route": "L", "stop_name": "San Pablo Av & Vale Rd", "stop_id": 4566, "color": "#e41a1c"}, "geometry": {"type": "Point", "coordinates": [-122.336062, 37.955914]}}, {"type": "Feature", "properties": {"route": "L", "stop_name": "San Pablo Av & Stockton Av", "stop_id": 5185, "color": "#e41a1c"}, "geometry": {"type": "Point", "coordinates": [-122.306212, 37.908039]}}, {"type": "Feature", "properties": {"route": "L", "stop_name": "Salesforce Transit Center Bay 6", "stop_id": 5826, "color": "#e41a1c"}, "geometry": {"type": "Point", "coordinates": [-122.397909, 37.78818]}}, {"type": "Feature", "properties": {"route": "L", "stop_name": "Pierce St & Solano Av", "stop_id": 6389, "color": "#e41a1c"}, "geometry": {"type": "Point", "coordinates": [-122.305777, 37.889187]}}, {"type": "Feature", "properties": {"route": "57", "stop_name": "40th St & Emery St", "stop_id": 947, "color": "#377eb8"}, "geometry": {"type": "Point", "coordinates": [-122.281322, 37.830607]}}, {"type": "Feature", "properties": {"route": "57", "stop_name": "40th St & Harlan St", "stop_id": 948, "color": "#377eb8"}, "geometry": {"type": "Point", "coordinates": [-122.283446, 37.830189]}}, {"type": "Feature", "properties": {"route": "57", "stop_name": "40th St & Hollis St", "stop_id": 950, "color": "#377eb8"}, "geometry": {"type": "Point", "coordinates": [-122.284882, 37.829901]}}, {"type": "Feature", "properties": {"route": "57", "stop_name": "Christie Av & 65th St", "stop_id": 957, "color": "#377eb8"}, "geometry": {"type": "Point", "coordinates": [-122.296453, 37.845658]}}, {"type": "Feature", "properties": {"route": "57", "stop_name": "Christie Av & Powell Street Plaza Shopping Center", "stop_id": 958, "color": "#377eb8"}, "geometry": {"type": "Point", "coordinates": [-122.29449, 37.837433]}}, {"type": "Feature", "properties": {"route": "57", "stop_name": "40th St & Horton St", "stop_id": 971, "color": "#377eb8"}, "geometry": {"type": "Point", "coordinates": [-122.287267, 37.829439]}}, {"type": "Feature", "properties": {"route": "57", "stop_name": "40th St & San Pablo Av", "stop_id": 975, "color": "#377eb8"}, "geometry": {"type": "Point", "coordinates": [-122.279039, 37.831075]}}, {"type": "Feature", "properties": {"route": "57", "stop_name": "Shellmound St & Bay St", "stop_id": 982, "color": "#377eb8"}, "geometry": {"type": "Point", "coordinates": [-122.293641, 37.833348]}}, {"type": "Feature", "properties": {"route": "57", "stop_name": "Christie Av & Pacific Park Plaza", "stop_id": 983, "color": "#377eb8"}, "geometry": {"type": "Point", "coordinates": [-122.295508, 37.842652]}}, {"type": "Feature", "properties": {"route": "57", "stop_name": "40th St & Broadway", "stop_id": 2170, "color": "#377eb8"}, "geometry": {"type": "Point", "coordinates": [-122.257059, 37.827621]}}, {"type": "Feature", "properties": {"route": "57", "stop_name": "40th St & MacArthur BART", "stop_id": 2172, "color": "#377eb8"}, "geometry": {"type": "Point", "coordinates": [-122.266482, 37.829354]}}, {"type": "Feature", "properties": {"route": "57", "stop_name": "40th St & Market St", "stop_id": 2175, "color": "#377eb8"}, "geometry": {"type": "Point", "coordinates": [-122.273665, 37.830488]}}, {"type": "Feature", "properties": {"route": "57", "stop_name": "40th St & Telegraph Av", "stop_id": 2177, "color": "#377eb8"}, "geometry": {"type": "Point", "coordinates": [-122.264675, 37.829094]}}, {"type": "Feature", "properties": {"route": "57", "stop_name": "40th St & Webster St", "stop_id": 2179, "color": "#377eb8"}, "geometry": {"type": "Point", "coordinates": [-122.261004, 37.828488]}}, {"type": "Feature", "properties": {"route": "57", "stop_name": "40th St & West St", "stop_id": 2182, "color": "#377eb8"}, "geometry": {"type": "Point", "coordinates": [-122.271243, 37.830113]}}, {"type": "Feature", "properties": {"route": "57", "stop_name": "Foothill Blvd & Church St", "stop_id": 2801, "color": "#377eb8"}, "geometry": {"type": "Point", "coordinates": [-122.176943, 37.769707]}}, {"type": "Feature", "properties": {"route": "57", "stop_name": "Foothill Blvd & Eastmont Transit Center", "stop_id": 2804, "color": "#377eb8"}, "geometry": {"type": "Point", "coordinates": [-122.174148, 37.769279]}}, {"type": "Feature", "properties": {"route": "57", "stop_name": "Foothill Blvd & Havenscourt Blvd", "stop_id": 2808, "color": "#377eb8"}, "geometry": {"type": "Point", "coordinates": [-122.181497, 37.770297]}}, {"type": "Feature", "properties": {"route": "57", "stop_name": "345 MacArthur Blvd", "stop_id": 3081, "color": "#377eb8"}, "geometry": {"type": "Point", "coordinates": [-122.251178, 37.813202]}}, {"type": "Feature", "properties": {"route": "57", "stop_name": "MacArthur Blvd & 13th Av (Edna Brewer Middle Sch.)", "stop_id": 3084, "color": "#377eb8"}, "geometry": {"type": "Point", "coordinates": [-122.231741, 37.802297]}}, {"type": "Feature", "properties": {"route": "57", "stop_name": "MacArthur Blvd & 35th Av", "stop_id": 3086, "color": "#377eb8"}, "geometry": {"type": "Point", "coordinates": [-122.200851, 37.79385]}}, {"type": "Feature", "properties": {"route": "57", "stop_name": "MacArthur Blvd & 38th Av", "stop_id": 3087, "color": "#377eb8"}, "geometry": {"type": "Point", "coordinates": [-122.198091, 37.790837]}}, {"type": "Feature", "properties": {"route": "57", "stop_name": "MacArthur Blvd & 77th Av", "stop_id": 3098, "color": "#377eb8"}, "geometry": {"type": "Point", "coordinates": [-122.169415, 37.767153]}}, {"type": "Feature", "properties": {"route": "57", "stop_name": "MacArthur Blvd & 82nd Av", "stop_id": 3099, "color": "#377eb8"}, "geometry": {"type": "Point", "coordinates": [-122.16485, 37.762495]}}, {"type": "Feature", "properties": {"route": "57", "stop_name": "MacArthur Blvd & 84th Av", "stop_id": 3101, "color": "#377eb8"}, "geometry": {"type": "Point", "coordinates": [-122.16386, 37.76134]}}, {"type": "Feature", "properties": {"route": "57", "stop_name": "MacArthur Blvd & 94th Av", "stop_id": 3103, "color": "#377eb8"}, "geometry": {"type": "Point", "coordinates": [-122.160506, 37.753008]}}, {"type": "Feature", "properties": {"route": "57", "stop_name": "MacArthur Blvd & 96th Av", "stop_id": 3104, "color": "#377eb8"}, "geometry": {"type": "Point", "coordinates": [-122.159926, 37.751358]}}, {"type": "Feature", "properties": {"route": "57", "stop_name": "MacArthur Blvd & 98th Av", "stop_id": 3107, "color": "#377eb8"}, "geometry": {"type": "Point", "coordinates": [-122.159045, 37.750003]}}, {"type": "Feature", "properties": {"route": "57", "stop_name": "MacArthur Blvd & 99th Av", "stop_id": 3109, "color": "#377eb8"}, "geometry": {"type": "Point", "coordinates": [-122.157144, 37.747084]}}, {"type": "Feature", "properties": {"route": "57", "stop_name": "MacArthur Blvd & Adams St", "stop_id": 3110, "color": "#377eb8"}, "geometry": {"type": "Point", "coordinates": [-122.252311, 37.815938]}}, {"type": "Feature", "properties": {"route": "57", "stop_name": "MacArthur Blvd & Adell Ct", "stop_id": 3111, "color": "#377eb8"}, "geometry": {"type": "Point", "coordinates": [-122.219118, 37.80082]}}, {"type": "Feature", "properties": {"route": "57", "stop_name": "MacArthur Blvd & Athol Av", "stop_id": 3115, "color": "#377eb8"}, "geometry": {"type": "Point", "coordinates": [-122.24153, 37.807008]}}, {"type": "Feature", "properties": {"route": "57", "stop_name": "MacArthur Blvd & Beaumont Av", "stop_id": 3116, "color": "#377eb8"}, "geometry": {"type": "Point", "coordinates": [-122.229193, 37.800482]}}, {"type": "Feature", "properties": {"route": "57", "stop_name": "MacArthur Blvd & Boston Av", "stop_id": 3118, "color": "#377eb8"}, "geometry": {"type": "Point", "coordinates": [-122.21293, 37.799478]}}, {"type": "Feature", "properties": {"route": "57", "stop_name": "MacArthur Blvd & Byron Av", "stop_id": 3119, "color": "#377eb8"}, "geometry": {"type": "Point", "coordinates": [-122.155551, 37.745407]}}, {"type": "Feature", "properties": {"route": "57", "stop_name": "MacArthur Blvd & Coolidge Av (Bret Harte Junior H)", "stop_id": 3125, "color": "#377eb8"}, "geometry": {"type": "Point", "coordinates": [-122.209001, 37.798473]}}, {"type": "Feature", "properties": {"route": "57", "stop_name": "MacArthur Blvd & Grand Av", "stop_id": 3129, "color": "#377eb8"}, "geometry": {"type": "Point", "coordinates": [-122.249096, 37.810236]}}, {"type": "Feature", "properties": {"route": "57", "stop_name": "MacArthur Blvd & Laguna Av", "stop_id": 3133, "color": "#377eb8"}, "geometry": {"type": "Point", "coordinates": [-122.210897, 37.798948]}}, {"type": "Feature", "properties": {"route": "57", "stop_name": "MacArthur Blvd & Lakeshore Av", "stop_id": 3134, "color": "#377eb8"}, "geometry": {"type": "Point", "coordinates": [-122.247528, 37.809706]}}, {"type": "Feature", "properties": {"route": "57", "stop_name": "MacArthur Blvd & Laurel Av", "stop_id": 3136, "color": "#377eb8"}, "geometry": {"type": "Point", "coordinates": [-122.203509, 37.796162]}}, {"type": "Feature", "properties": {"route": "57", "stop_name": "MacArthur Blvd & Maple Av", "stop_id": 3137, "color": "#377eb8"}, "geometry": {"type": "Point", "coordinates": [-122.205135, 37.797393]}}, {"type": "Feature", "properties": {"route": "57", "stop_name": "MacArthur Blvd & Maybelle Av", "stop_id": 3139, "color": "#377eb8"}, "geometry": {"type": "Point", "coordinates": [-122.196067, 37.788599]}}, {"type": "Feature", "properties": {"route": "57", "stop_name": "MacArthur Blvd & Park Blvd", "stop_id": 3141, "color": "#377eb8"}, "geometry": {"type": "Point", "coordinates": [-122.234134, 37.804059]}}, {"type": "Feature", "properties": {"route": "57", "stop_name": "MacArthur Blvd & Parker Av", "stop_id": 3142, "color": "#377eb8"}, "geometry": {"type": "Point", "coordinates": [-122.16799, 37.766118]}}, {"type": "Feature", "properties": {"route": "57", "stop_name": "MacArthur Blvd & Sheffield Av", "stop_id": 3151, "color": "#377eb8"}, "geometry": {"type": "Point", "coordinates": [-122.220904, 37.799991]}}, {"type": "Feature", "properties": {"route": "57", "stop_name": "MacArthur Blvd & Van Buren Av", "stop_id": 3152, "color": "#377eb8"}, "geometry": {"type": "Point", "coordinates": [-122.250548, 37.811312]}}, {"type": "Feature", "properties": {"route": "57", "stop_name": "MacArthur Blvd & Vernon St", "stop_id": 3153, "color": "#377eb8"}, "geometry": {"type": "Point", "coordinates": [-122.252922, 37.817221]}}, {"type": "Feature", "properties": {"route": "57", "stop_name": "MacArthur Blvd & Warner Av", "stop_id": 3154, "color": "#377eb8"}, "geometry": {"type": "Point", "coordinates": [-122.157994, 37.748396]}}, {"type": "Feature", "properties": {"route": "57", "stop_name": "MacArthur Blvd & Wesley Av", "stop_id": 3155, "color": "#377eb8"}, "geometry": {"type": "Point", "coordinates": [-122.244452, 37.808583]}}, {"type": "Feature", "properties": {"route": "57", "stop_name": "MacArthur Blvd & Woodruff Av", "stop_id": 3156, "color": "#377eb8"}, "geometry": {"type": "Point", "coordinates": [-122.222855, 37.800354]}}, {"type": "Feature", "properties": {"route": "57", "stop_name": "W MacArthur Blvd & Fairmount Av", "stop_id": 3601, "color": "#377eb8"}, "geometry": {"type": "Point", "coordinates": [-122.254789, 37.821515]}}, {"type": "Feature", "properties": {"route": "57", "stop_name": "40th St & Martin Luther King Jr Way", "stop_id": 3615, "color": "#377eb8"}, "geometry": {"type": "Point", "coordinates": [-122.267891, 37.829573]}}, {"type": "Feature", "properties": {"route": "57", "stop_name": "MacArthur Blvd & High St", "stop_id": 3638, "color": "#377eb8"}, "geometry": {"type": "Point", "coordinates": [-122.194607, 37.786981]}}, {"type": "Feature", "properties": {"route": "57", "stop_name": "MacArthur Blvd & Pierson St.(Mills College)", "stop_id": 3639, "color": "#377eb8"}, "geometry": {"type": "Point", "coordinates": [-122.18803, 37.782625]}}, {"type": "Feature", "properties": {"route": "57", "stop_name": "MacArthur Blvd & 90th Av", "stop_id": 3642, "color": "#377eb8"}, "geometry": {"type": "Point", "coordinates": [-122.161323, 37.755262]}}, {"type": "Feature", "properties": {"route": "57", "stop_name": "MacArthur Blvd & Millsbrae Av", "stop_id": 3669, "color": "#377eb8"}, "geometry": {"type": "Point", "coordinates": [-122.186109, 37.775819]}}, {"type": "Feature", "properties": {"route": "57", "stop_name": "14th Av & E 33rd St", "stop_id": 3684, "color": "#377eb8"}, "geometry": {"type": "Point", "coordinates": [-122.227145, 37.800145]}}, {"type": "Feature", "properties": {"route": "57", "stop_name": "W MacArthur Blvd & Piedmont Av", "stop_id": 3702, "color": "#377eb8"}, "geometry": {"type": "Point", "coordinates": [-122.256444, 37.822954]}}, {"type": "Feature", "properties": {"route": "57", "stop_name": "106th Av & MacArthur Blvd", "stop_id": 3721, "color": "#377eb8"}, "geometry": {"type": "Point", "coordinates": [-122.152077, 37.743116]}}, {"type": "Feature", "properties": {"route": "57", "stop_name": "MacArthur Blvd & Fruitvale Av", "stop_id": 5266, "color": "#377eb8"}, "geometry": {"type": "Point", "coordinates": [-122.215789, 37.800204]}}, {"type": "Feature", "properties": {"route": "57", "stop_name": "MacArthur Blvd & Randolph Av", "stop_id": 5267, "color": "#377eb8"}, "geometry": {"type": "Point", "coordinates": [-122.224632, 37.800686]}}, {"type": "Feature", "properties": {"route": "57", "stop_name": "MacArthur Blvd & 88th Av", "stop_id": 5297, "color": "#377eb8"}, "geometry": {"type": "Point", "coordinates": [-122.162128, 37.757388]}}, {"type": "Feature", "properties": {"route": "57", "stop_name": "MacArthur Blvd & 55th Av", "stop_id": 5299, "color": "#377eb8"}, "geometry": {"type": "Point", "coordinates": [-122.188113, 37.777644]}}, {"type": "Feature", "properties": {"route": "57", "stop_name": "W MacArthur Blvd & Howe St", "stop_id": 5305, "color": "#377eb8"}, "geometry": {"type": "Point", "coordinates": [-122.257811, 37.823905]}}, {"type": "Feature", "properties": {"route": "57", "stop_name": "Foothill Blvd & 108th Av", "stop_id": 5308, "color": "#377eb8"}, "geometry": {"type": "Point", "coordinates": [-122.147794, 37.743464]}}, {"type": "Feature", "properties": {"route": "57", "stop_name": "MacArthur Blvd & Ritchie St", "stop_id": 6290, "color": "#377eb8"}, "geometry": {"type": "Point", "coordinates": [-122.16654, 37.76443]}}, {"type": "Feature", "properties": {"route": "57", "stop_name": "Camden St & 62nd Av (Frick Middle School)", "stop_id": 6301, "color": "#377eb8"}, "geometry": {"type": "Point", "coordinates": [-122.183288, 37.773455]}}, {"type": "Feature", "properties": {"route": "57", "stop_name": "Camden St & 64th Av", "stop_id": 6303, "color": "#377eb8"}, "geometry": {"type": "Point", "coordinates": [-122.181867, 37.772152]}}, {"type": "Feature", "properties": {"route": "57", "stop_name": "MacArthur Blvd & Castlemont High School", "stop_id": 6354, "color": "#377eb8"}, "geometry": {"type": "Point", "coordinates": [-122.163164, 37.76022]}}, {"type": "Feature", "properties": {"route": "57", "stop_name": "MacArthur Blvd & Alma Av (Oakland High School)", "stop_id": 6400, "color": "#377eb8"}, "geometry": {"type": "Point", "coordinates": [-122.23695, 37.805404]}}, {"type": "Feature", "properties": {"route": "1T", "stop_name": "Downtown San Leandro SB", "stop_id": 6121, "color": "#4daf4a"}, "geometry": {"type": "Point", "coordinates": [-122.157925, 37.72544]}}, {"type": "Feature", "properties": {"route": "1T", "stop_name": "San Leandro Civic Center SB", "stop_id": 6123, "color": "#4daf4a"}, "geometry": {"type": "Point", "coordinates": [-122.158803, 37.728445]}}, {"type": "Feature", "properties": {"route": "1T", "stop_name": "Georgia Way SB", "stop_id": 6125, "color": "#4daf4a"}, "geometry": {"type": "Point", "coordinates": [-122.161485, 37.732028]}}, {"type": "Feature", "properties": {"route": "1T", "stop_name": "Durant Avenue", "stop_id": 6127, "color": "#4daf4a"}, "geometry": {"type": "Point", "coordinates": [-122.164005, 37.735617]}}, {"type": "Feature", "properties": {"route": "1T", "stop_name": "103rd Avenue", "stop_id": 6129, "color": "#4daf4a"}, "geometry": {"type": "Point", "coordinates": [-122.167757, 37.740639]}}, {"type": "Feature", "properties": {"route": "1T", "stop_name": "98th Avenue", "stop_id": 6131, "color": "#4daf4a"}, "geometry": {"type": "Point", "coordinates": [-122.169794, 37.743343]}}, {"type": "Feature", "properties": {"route": "1T", "stop_name": "95th Avenue", "stop_id": 6133, "color": "#4daf4a"}, "geometry": {"type": "Point", "coordinates": [-122.171732, 37.745979]}}, {"type": "Feature", "properties": {"route": "1T", "stop_name": "90th Avenue", "stop_id": 6135, "color": "#4daf4a"}, "geometry": {"type": "Point", "coordinates": [-122.174198, 37.749303]}}, {"type": "Feature", "properties": {"route": "1T", "stop_name": "86th Avenue", "stop_id": 6137, "color": "#4daf4a"}, "geometry": {"type": "Point", "coordinates": [-122.176386, 37.752258]}}, {"type": "Feature", "properties": {"route": "1T", "stop_name": "82nd Avenue", "stop_id": 6139, "color": "#4daf4a"}, "geometry": {"type": "Point", "coordinates": [-122.179737, 37.755697]}}, {"type": "Feature", "properties": {"route": "1T", "stop_name": "77th Avenue", "stop_id": 6141, "color": "#4daf4a"}, "geometry": {"type": "Point", "coordinates": [-122.18465, 37.758032]}}, {"type": "Feature", "properties": {"route": "1T", "stop_name": "73rd Avenue", "stop_id": 6143, "color": "#4daf4a"}, "geometry": {"type": "Point", "coordinates": [-122.18838, 37.759805]}}, {"type": "Feature", "properties": {"route": "1T", "stop_name": "67th Avenue", "stop_id": 6145, "color": "#4daf4a"}, "geometry": {"type": "Point", "coordinates": [-122.191508, 37.761301]}}, {"type": "Feature", "properties": {"route": "1T", "stop_name": "63rd Avenue", "stop_id": 6147, "color": "#4daf4a"}, "geometry": {"type": "Point", "coordinates": [-122.196046, 37.763436]}}, {"type": "Feature", "properties": {"route": "1T", "stop_name": "Seminary", "stop_id": 6149, "color": "#4daf4a"}, "geometry": {"type": "Point", "coordinates": [-122.200553, 37.76559]}}, {"type": "Feature", "properties": {"route": "1T", "stop_name": "48th Avenue", "stop_id": 6151, "color": "#4daf4a"}, "geometry": {"type": "Point", "coordinates": [-122.209049, 37.769574]}}, {"type": "Feature", "properties": {"route": "1T", "stop_name": "High Street", "stop_id": 6153, "color": "#4daf4a"}, "geometry": {"type": "Point", "coordinates": [-122.213176, 37.771538]}}, {"type": "Feature", "properties": {"route": "1T", "stop_name": "28th Avenue", "stop_id": 6155, "color": "#4daf4a"}, "geometry": {"type": "Point", "coordinates": [-122.230205, 37.779959]}}, {"type": "Feature", "properties": {"route": "1T", "stop_name": "24th Avenue", "stop_id": 6157, "color": "#4daf4a"}, "geometry": {"type": "Point", "coordinates": [-122.234526, 37.782547]}}, {"type": "Feature", "properties": {"route": "1T", "stop_name": "20th Avenue", "stop_id": 6159, "color": "#4daf4a"}, "geometry": {"type": "Point", "coordinates": [-122.239667, 37.785624]}}, {"type": "Feature", "properties": {"route": "1T", "stop_name": "14th Avenue SB", "stop_id": 6161, "color": "#4daf4a"}, "geometry": {"type": "Point", "coordinates": [-122.246421, 37.788785]}}, {"type": "Feature", "properties": {"route": "1T", "stop_name": "10th Avenue SB", "stop_id": 6163, "color": "#4daf4a"}, "geometry": {"type": "Point", "coordinates": [-122.249667, 37.790419]}}, {"type": "Feature", "properties": {"route": "1T", "stop_name": "San Leandro BART", "stop_id": 6164, "color": "#4daf4a"}, "geometry": {"type": "Point", "coordinates": [-122.160166, 37.721569]}}, {"type": "Feature", "properties": {"route": "1T", "stop_name": "5th Avenue SB", "stop_id": 6165, "color": "#4daf4a"}, "geometry": {"type": "Point", "coordinates": [-122.25336, 37.793694]}}, {"type": "Feature", "properties": {"route": "1T", "stop_name": "2nd Avenue SB", "stop_id": 6167, "color": "#4daf4a"}, "geometry": {"type": "Point", "coordinates": [-122.257103, 37.796971]}}, {"type": "Feature", "properties": {"route": "1T", "stop_name": "Madison SB", "stop_id": 6170, "color": "#4daf4a"}, "geometry": {"type": "Point", "coordinates": [-122.265638, 37.799508]}}, {"type": "Feature", "properties": {"route": "1T", "stop_name": "Uptown Oakland SB", "stop_id": 6172, "color": "#4daf4a"}, "geometry": {"type": "Point", "coordinates": [-122.268681, 37.808537]}}, {"type": "Feature", "properties": {"route": "1T", "stop_name": "14th Street SB", "stop_id": 6174, "color": "#4daf4a"}, "geometry": {"type": "Point", "coordinates": [-122.271487, 37.804092]}}, {"type": "Feature", "properties": {"route": "1T", "stop_name": "City Center SB", "stop_id": 6176, "color": "#4daf4a"}, "geometry": {"type": "Point", "coordinates": [-122.271797, 37.80189]}}, {"type": "Feature", "properties": {"route": "1T", "stop_name": "Harrison SB", "stop_id": 6177, "color": "#4daf4a"}, "geometry": {"type": "Point", "coordinates": [-122.267992, 37.800431]}}, {"type": "Feature", "properties": {"route": "1T", "stop_name": "31st  Avenue", "stop_id": 6180, "color": "#4daf4a"}, "geometry": {"type": "Point", "coordinates": [-122.226842, 37.778071]}}, {"type": "Feature", "properties": {"route": "1T", "stop_name": "Fruitvale", "stop_id": 6182, "color": "#4daf4a"}, "geometry": {"type": "Point", "coordinates": [-122.223443, 37.776438]}}, {"type": "Feature", "properties": {"route": "1T", "stop_name": "39th Avenue", "stop_id": 6184, "color": "#4daf4a"}, "geometry": {"type": "Point", "coordinates": [-122.219282, 37.77445]}}, {"type": "Feature", "properties": {"route": "1T", "stop_name": "54th Avenue", "stop_id": 6186, "color": "#4daf4a"}, "geometry": {"type": "Point", "coordinates": [-122.205743, 37.768014]}}, {"type": "Feature", "properties": {"route": "F", "stop_name": "Adeline St & Alcatraz Av", "stop_id": 279, "color": "#984ea3"}, "geometry": {"type": "Point", "coordinates": [-122.271091, 37.849115]}}, {"type": "Feature", "properties": {"route": "F", "stop_name": "Adeline St & Ashby Av", "stop_id": 281, "color": "#984ea3"}, "geometry": {"type": "Point", "coordinates": [-122.268619, 37.855424]}}, {"type": "Feature", "properties": {"route": "F", "stop_name": "Adeline St & Ashby BART", "stop_id": 283, "color": "#984ea3"}, "geometry": {"type": "Point", "coordinates": [-122.269542, 37.852913]}}, {"type": "Feature", "properties": {"route": "F", "stop_name": "Adeline St & Fairview St", "stop_id": 284, "color": "#984ea3"}, "geometry": {"type": "Point", "coordinates": [-122.270477, 37.851003]}}, {"type": "Feature", "properties": {"route": "F", "stop_name": "Adeline St & Oregon St", "stop_id": 286, "color": "#984ea3"}, "geometry": {"type": "Point", "coordinates": [-122.267728, 37.857758]}}, {"type": "Feature", "properties": {"route": "F", "stop_name": "Shattuck Av & Durant Av", "stop_id": 660, "color": "#984ea3"}, "geometry": {"type": "Point", "coordinates": [-122.267517, 37.866604]}}, {"type": "Feature", "properties": {"route": "F", "stop_name": "Shattuck Av & Dwight Way", "stop_id": 661, "color": "#984ea3"}, "geometry": {"type": "Point", "coordinates": [-122.267216, 37.863909]}}, {"type": "Feature", "properties": {"route": "F", "stop_name": "Shattuck Av & Kittredge St", "stop_id": 665, "color": "#984ea3"}, "geometry": {"type": "Point", "coordinates": [-122.267722, 37.86845]}}, {"type": "Feature", "properties": {"route": "F", "stop_name": "Shattuck Av & Parker St", "stop_id": 666, "color": "#984ea3"}, "geometry": {"type": "Point", "coordinates": [-122.266997, 37.862092]}}, {"type": "Feature", "properties": {"route": "F", "stop_name": "Shattuck Av & University Av", "stop_id": 673, "color": "#984ea3"}, "geometry": {"type": "Point", "coordinates": [-122.268319, 37.872541]}}, {"type": "Feature", "properties": {"route": "F", "stop_name": "40th St & Emery St", "stop_id": 947, "color": "#984ea3"}, "geometry": {"type": "Point", "coordinates": [-122.281322, 37.830607]}}, {"type": "Feature", "properties": {"route": "F", "stop_name": "40th St & Harlan St", "stop_id": 948, "color": "#984ea3"}, "geometry": {"type": "Point", "coordinates": [-122.283446, 37.830189]}}, {"type": "Feature", "properties": {"route": "F", "stop_name": "40th St & Hollis St", "stop_id": 950, "color": "#984ea3"}, "geometry": {"type": "Point", "coordinates": [-122.284882, 37.829901]}}, {"type": "Feature", "properties": {"route": "F", "stop_name": "Christie Av & Powell Street Plaza Shopping Center", "stop_id": 958, "color": "#984ea3"}, "geometry": {"type": "Point", "coordinates": [-122.29449, 37.837433]}}, {"type": "Feature", "properties": {"route": "F", "stop_name": "40th St & Horton St", "stop_id": 971, "color": "#984ea3"}, "geometry": {"type": "Point", "coordinates": [-122.287267, 37.829439]}}, {"type": "Feature", "properties": {"route": "F", "stop_name": "40th St & San Pablo Av", "stop_id": 974, "color": "#984ea3"}, "geometry": {"type": "Point", "coordinates": [-122.279367, 37.83103]}}, {"type": "Feature", "properties": {"route": "F", "stop_name": "Shellmound St & Bay St", "stop_id": 982, "color": "#984ea3"}, "geometry": {"type": "Point", "coordinates": [-122.293641, 37.833348]}}, {"type": "Feature", "properties": {"route": "F", "stop_name": "Market St & 40th St", "stop_id": 3185, "color": "#984ea3"}, "geometry": {"type": "Point", "coordinates": [-122.273785, 37.830886]}}, {"type": "Feature", "properties": {"route": "F", "stop_name": "Market St & 45th St", "stop_id": 3189, "color": "#984ea3"}, "geometry": {"type": "Point", "coordinates": [-122.27291, 37.834341]}}, {"type": "Feature", "properties": {"route": "F", "stop_name": "Market St & 55th St", "stop_id": 3194, "color": "#984ea3"}, "geometry": {"type": "Point", "coordinates": [-122.273795, 37.839138]}}, {"type": "Feature", "properties": {"route": "F", "stop_name": "Market St & Arlington Av", "stop_id": 3203, "color": "#984ea3"}, "geometry": {"type": "Point", "coordinates": [-122.274463, 37.842233]}}, {"type": "Feature", "properties": {"route": "F", "stop_name": "Stanford Av & King St", "stop_id": 3534, "color": "#984ea3"}, "geometry": {"type": "Point", "coordinates": [-122.272847, 37.845978]}}, {"type": "Feature", "properties": {"route": "F", "stop_name": "Salesforce Transit Center Bay 32", "stop_id": 5844, "color": "#984ea3"}, "geometry": {"type": "Point", "coordinates": [-122.395668, 37.789949]}}, {"type": "Feature", "properties": {"route": "F", "stop_name": "Market St & 53rd St", "stop_id": 5880, "color": "#984ea3"}, "geometry": {"type": "Point", "coordinates": [-122.273517, 37.837797]}}, {"type": "Feature", "properties": {"route": "F", "stop_name": "Shattuck Av & Allston Way", "stop_id": 6106, "color": "#984ea3"}, "geometry": {"type": "Point", "coordinates": [-122.267802, 37.86988]}}, {"type": "Feature", "properties": {"route": "F", "stop_name": "Hearst Av & Walnut St", "stop_id": 6118, "color": "#984ea3"}, "geometry": {"type": "Point", "coordinates": [-122.266985, 37.873981]}}, {"type": "Feature", "properties": {"route": "F", "stop_name": "Stanford Av & Market St", "stop_id": 6448, "color": "#984ea3"}, "geometry": {"type": "Point", "coordinates": [-122.274691, 37.844483]}}]}